OBJECT_NAME,OBJECT_ID,EPOCH,MEAN_MOTION,ECCENTRICITY,INCLINATION,RA_OF_ASC_NODE,ARG_OF_PERICENTER,MEAN_ANOMALY,EPHEMERIS_TYPE,CLASSIFICATION_TYPE,NORAD_CAT_ID,ELEMENT_SET_NO,REV_AT_EPOCH,BSTAR,MEAN_MOTION_DOT,MEAN_MOTION_DDOT
STARLINK-31606,2024-076H,2026-06-15T04:00:01.998720,15.27588692,.0001955,43.0012,178.0975,271.2640,147.5109,0,U,59571,999,590,-.73516E-3,-.20443E-3,0
STARLINK-31666,2024-076J,2026-06-14T17:27:41.099328,15.27567741,.00009608,43.0022,174.0127,269.5699,90.5042,0,U,59572,999,12142,-.40113987E-4,-.1365E-4,0
STARLINK-31683,2024-076K,2026-06-14T07:52:06.180384,15.27577118,.00016498,42.9966,183.1101,269.6366,90.4296,0,U,59573,999,12128,.51062983E-4,.1143E-4,0
STARLINK-31751,2024-076L,2026-06-14T18:05:09.153888,15.27572897,.00008681,43.0014,181.1653,272.5224,87.5528,0,U,59574,999,12134,-.17177058E-4,-.734E-5,0
STARLINK-31510,2024-076M,2026-06-14T17:39:56.643264,15.27573995,.00009961,43.0003,177.5680,276.1675,83.9063,0,U,59575,999,12138,-.2026033E-4,-.819E-5,0
STARLINK-31663,2024-076N,2026-06-14T17:59:35.369952,15.27584304,.00016777,43.0018,181.1184,283.7331,76.3334,0,U,59576,999,12134,-.78034989E-4,-.2409E-4,0
STARLINK-31692,2024-076P,2026-06-14T07:46:24.865824,15.32763511,.00040281,42.9987,182.1998,81.4634,278.6676,0,U,59577,999,12129,.16835914E-2,.54536E-3,0
STARLINK-31685,2024-076Q,2026-06-14T18:25:19.025184,15.27568381,.00010486,43.0021,180.3904,250.5146,109.5593,0,U,59578,999,12135,-.6858507E-5,-.451E-5,0
STARLINK-31686,2024-076R,2026-06-14T18:30:49.837824,15.27579449,.00025978,43.0102,180.4246,279.8296,80.2262,0,U,59579,999,12135,.12928263E-4,.93E-6,0
STARLINK-31668,2024-076S,2026-06-14T18:14:11.373504,15.27589910,.0000842,43.0005,180.3433,300.8419,59.2350,0,U,59580,999,12135,.39846551E-4,.835E-5,0
STARLINK-31690,2024-076T,2026-06-14T07:46:33.349440,15.27568450,.0002158,43.0067,183.0860,275.3962,84.6643,0,U,59581,999,12129,-.26196399E-4,-.983E-5,0
STARLINK-31701,2024-076U,2026-06-14T17:33:40.576896,15.27759343,.00019957,43.0030,180.9804,289.4588,70.6048,0,U,59582,999,12125,.12915721E-2,.35647E-3,0
STARLINK-31697,2024-076V,2026-06-14T07:44:42.845568,15.27577837,.00017528,43.0079,183.0679,275.5468,84.5184,0,U,59583,999,12119,.47482278E-4,.1044E-4,0
STARLINK-31662,2024-076W,2026-06-14T17:42:56.495232,15.27574821,.00012798,42.9982,181.0317,273.2195,86.8510,0,U,59584,999,12134,-.1247593E-5,-.296E-5,0
STARLINK-31702,2024-076X,2026-06-14T18:06:59.828832,15.27573878,.00012161,43.0024,181.1588,279.9567,80.1147,0,U,59585,999,12134,-.11922527E-4,-.59E-5,0
STARLINK-31704,2024-076Y,2026-06-15T04:00:01.998720,15.48772734,.0018843,42.9894,123.8508,159.1798,296.0472,0,U,59586,999,553,.24642E-2,.138622E-2,0
NEONSAT-1,2024-077A,2026-06-15T04:35:41.471808,15.38473741,.0008912,97.3500,250.2057,50.4686,309.7345,0,U,59587,999,11942,.32229E-3,.12172E-3,0
ACS3,2024-077B,2026-06-14T14:54:47.943072,13.93844822,.00689894,97.1678,84.9820,65.3065,295.5264,0,U,59588,999,10768,.58459193E-2,.784E-4,0
GSAT0225 (GALILEO 29),2024-079A,2026-06-14T19:54:30.701664,1.70473806,.00016271,55.1185,101.1461,305.1538,273.5653,0,U,59598,999,1327,0,-.13E-6,0
GSAT0227 (GALILEO 30),2024-079C,2026-06-14T01:40:40.530720,1.70473921,.00020513,55.1133,101.1658,47.7236,312.2495,0,U,59600,999,1331,0,-.1E-6,0
STARLINK-31770,2024-080A,2026-06-14T19:35:52.042848,15.27569026,.000166,42.9972,209.6715,276.5643,83.5020,0,U,59601,999,12059,-.67708931E-4,-.2124E-4,0
STARLINK-31778,2024-080B,2026-06-14T10:13:28.794144,15.27577354,.00014277,43.0000,208.4435,266.2812,93.7876,0,U,59602,999,11936,-.6815246E-5,-.45E-5,0
STARLINK-31776,2024-080C,2026-06-14T19:33:21.162528,15.27532748,.00014086,42.9960,213.1169,134.1178,225.9789,0,U,59603,999,11934,.22441395E-3,.591E-4,0
STARLINK-31765,2024-080D,2026-06-14T09:29:04.632000,15.27577448,.00021295,43.0087,208.2140,281.6442,78.4170,0,U,59604,999,11936,.8824262E-5,-.2E-6,0
STARLINK-31767,2024-080E,2026-06-14T19:24:46.566720,15.27572989,.00012897,42.9975,209.6159,272.0584,88.0120,0,U,59605,999,11938,-.2215604E-4,-.871E-5,0
STARLINK-31782,2024-080F,2026-06-14T19:48:10.263456,15.27550471,.00005632,43.0050,213.1961,252.3746,107.7044,0,U,59606,999,11934,-.64835291E-4,-.2044E-4,0
STARLINK-31755,2024-080G,2026-06-14T19:53:40.317504,15.27613392,.00019083,42.9974,213.2250,286.2109,73.8532,0,U,59607,999,11934,-.18307347E-3,-.5302E-4,0
STARLINK-31585,2024-080H,2026-06-14T19:45:36.391104,15.27576404,.00018836,43.0103,205.4011,278.2495,81.8144,0,U,59608,999,11944,-.15027751E-4,-.676E-5,0
STARLINK-31667,2024-080J,2026-06-14T19:51:09.926208,15.27564239,.00011946,43.0010,205.4305,287.7103,72.3618,0,U,59609,999,11943,.79258544E-4,.1919E-4,0
STARLINK-31729,2024-080K,2026-06-14T19:31:03.135936,15.27545997,.00003774,43.0026,206.1841,4.2123,355.8732,0,U,59610,999,11942,-.52998201E-4,-.1718E-4,0
STARLINK-31448,2024-080L,2026-06-14T19:08:50.885088,15.27559945,.00012199,42.9978,206.0653,279.2361,80.8353,0,U,59611,999,11942,-.24490902E-4,-.935E-5,0
STARLINK-31748,2024-080M,2026-06-14T09:16:07.230720,15.27578283,.00021099,43.0091,208.1487,281.4367,78.6248,0,U,59612,999,12053,.14058498E-4,.124E-5,0
STARLINK-31746,2024-080N,2026-06-14T19:59:13.663392,15.27572969,.00011818,43.0007,213.2245,274.1066,85.9650,0,U,59613,999,11934,-.41952955E-4,-.1416E-4,0
STARLINK-31762,2024-080P,2026-06-14T19:19:13.468800,15.27558926,.00016302,42.9922,209.5817,278.5259,81.5408,0,U,59614,999,11938,-.13465673E-3,-.3963E-4,0
STARLINK-31768,2024-080R,2026-06-14T09:50:34.965888,15.27576016,.00013448,43.0032,211.7809,274.8682,85.2017,0,U,59616,999,11932,.3116169E-5,-.176E-5,0
STARLINK-31769,2024-080S,2026-06-14T19:41:25.116576,15.27581297,.00012243,43.0005,209.6993,268.4543,91.6169,0,U,59617,999,11938,.28515352E-4,.523E-5,0
STARLINK-31784,2024-080T,2026-06-14T19:38:53.046528,15.27574968,.00012757,43.0066,213.1438,276.8362,83.2344,0,U,59618,999,11934,-.49770241E-4,-.1631E-4,0
STARLINK-31777,2024-080U,2026-06-14T19:44:25.644192,15.27575376,.00015176,43.0038,213.1708,281.2362,78.8319,0,U,59619,999,11934,.35922456E-4,.726E-5,0
STARLINK-31758,2024-080W,2026-06-14T19:58:34.151808,15.27567828,.00015369,43.0033,205.4667,267.7960,92.2716,0,U,59621,999,11943,-.44828916E-4,-.1495E-4,0
STARLINK-31774,2024-080X,2026-06-14T19:18:04.120704,15.27577799,.0001244,43.0020,206.1166,271.6506,88.4203,0,U,59622,999,11942,-.19909682E-4,-.81E-5,0
STARLINK-31763,2024-080Y,2026-06-14T10:22:02.178624,15.27573325,.00012395,42.9995,211.9432,274.6897,85.3813,0,U,59623,999,11932,-.12710887E-4,-.612E-5,0
LEGION 1,2024-081A,2026-06-15T04:21:42.686784,15.16654223,.0009719,97.5022,244.0598,24.6102,335.5593,0,U,59625,999,11723,.16007E-3,.3067E-4,0
LEGION 2,2024-081B,2026-06-15T03:29:50.063712,15.16634903,.0010953,97.5023,244.1217,351.2326,8.8714,0,U,59626,999,11723,.18341E-3,.3524E-4,0
STARLINK-31749,2024-082A,2026-06-15T02:25:48.127008,15.27556986,.0000655,43.0036,309.3487,264.2404,95.8373,0,U,59631,999,11991,.12617E-3,.3209E-4,0
STARLINK-31781,2024-082B,2026-06-15T01:33:12.307392,15.27573285,.0001251,43.0023,295.7774,275.4374,84.6335,0,U,59632,999,11990,-.67914E-5,-.449E-5,0
STARLINK-31541,2024-082C,2026-06-14T15:42:53.573472,15.27576560,.00029301,43.0174,305.0956,288.5107,71.5427,0,U,59633,999,11991,.2277425E-5,-.2E-5,0
STARLINK-31797,2024-082D,2026-06-15T02:53:32.808768,15.27575816,.0001002,43.0025,309.4945,263.5486,96.5252,0,U,59634,999,11975,.29383E-4,.547E-5,0
STARLINK-31798,2024-082E,2026-06-15T02:05:37.999968,15.27580048,.0001938,42.9943,310.1019,289.9860,70.0783,0,U,59635,999,11970,.32339E-4,.628E-5,0
STARLINK-31802,2024-082F,2026-06-13T16:57:15.788736,15.27572839,.00013998,43.0028,317.8028,267.7757,92.2934,0,U,59636,999,11949,-.12039449E-4,-.593E-5,0
STARLINK-31791,2024-082G,2026-06-15T02:36:54.111168,15.27579124,.0000871,43.0104,309.4066,280.9732,79.1022,0,U,59637,999,11971,.24743E-4,.419E-5,0
STARLINK-31727,2024-082H,2026-06-15T02:11:11.164416,15.27584587,.0001912,42.9994,310.1282,284.1829,75.8810,0,U,59638,999,11975,-.10918E-4,-.563E-5,0
STARLINK-31807,2024-082J,2026-06-15T02:00:05.144832,15.27587992,.0001396,43.0056,310.0765,272.7780,87.2912,0,U,59639,999,11970,-.11353E-4,-.575E-5,0
STARLINK-31806,2024-082K,2026-06-14T16:09:14.778144,15.27580591,.00012964,43.0017,312.1544,253.0052,107.0657,0,U,59640,999,11964,.24875181E-4,.422E-5,0
STARLINK-31804,2024-082L,2026-06-15T02:31:20.231328,15.27584582,.0001452,43.0032,309.3783,270.8744,89.1941,0,U,59641,999,11971,-.70446E-4,-.22E-4,0
STARLINK-31660,2024-082M,2026-06-15T00:10:47.987904,15.27574148,.0001335,43.0017,269.8443,290.3644,69.7064,0,U,59642,999,12035,.46792E-4,.1025E-4,0
STARLINK-31800,2024-082N,2026-06-14T16:25:54.054624,15.27578888,.00014002,43.0009,312.2258,283.0904,76.9791,0,U,59643,999,11974,.63686829E-4,.1491E-4,0
STARLINK-31789,2024-082P,2026-06-15T02:48:00.108288,15.27588878,.0000704,43.0045,309.4631,268.1196,91.9575,0,U,59644,999,11991,.5961E-3,.16182E-3,0
STARLINK-31795,2024-082Q,2026-06-14T22:36:13.019904,15.27569498,.0000775,43.0014,252.0117,264.7902,95.2861,0,U,59645,999,12035,-.81031E-5,-.485E-5,0
STARLINK-31796,2024-082R,2026-06-14T03:24:54.171360,15.27570967,.00016398,43.0018,315.0484,262.9227,97.1439,0,U,59646,999,11972,-.27284398E-4,-.1013E-4,0
STARLINK-31801,2024-082S,2026-06-15T02:16:45.184224,15.27568012,.0000995,43.0071,310.1523,292.0717,68.0029,0,U,59647,999,11975,.29497E-4,.549E-5,0
STARLINK-31787,2024-082V,2026-06-15T03:02:46.732992,15.27584711,.0001056,43.0018,309.5386,278.8477,81.2255,0,U,59650,999,11991,.51292E-4,.115E-4,0
STARLINK-31277,2024-082W,2026-06-14T16:14:48.133536,15.27576653,.00025083,43.0055,312.1837,277.6850,82.3717,0,U,59651,999,11984,-.15197831E-4,-.681E-5,0
STARLINK-31799,2024-082X,2026-06-14T15:34:19.072704,15.27583445,.0000924,42.9919,301.5571,191.7056,168.3774,0,U,59652,999,11981,.42816E-4,.917E-5,0
STARLINK-31764,2024-082Y,2026-06-15T02:42:26.580960,15.27577023,.0000953,43.0056,309.4323,274.6112,85.4631,0,U,59653,999,11991,.76272E-5,-.52E-6,0
